DELTA 2 R/B(1)          
1 20453U 90008B   26161.63398676  .00074910  00000+0  57662-3 0  9994
2 20453  35.6006 279.4677 0066393  51.8794 308.7908 15.67790061940672
COSMOS 2058             
1 20465U 90010A   26161.51749986  .00003255  00000+0  18796-3 0  9990
2 20465  82.4660 315.9333 0010041  24.0527 336.1171 15.11967098956265
SL-14 R/B               
1 20466U 90010B   26161.55844444  .00000320  00000+0  35757-4 0  9997
2 20466  82.5015 180.1702 0019682 358.5132   1.6021 14.83641984942253
SL-14 R/B               
1 20511U 90018B   26161.32806697  .00000344  00000+0  40026-4 0  9990
2 20511  82.5206 136.5187 0017046 142.8321 217.4078 14.82211612936302
HST                     
1 20580U 90037B   26161.23228163  .00005211  00000+0  16320-3 0  9990
2 20580  28.4709 128.1050 0001977  72.5591 287.5221 15.30670250787500
SL-16 R/B               
1 20625U 90046B   26161.58595659  .00000304  00000+0  18127-3 0  9990
2 20625  70.9988 102.8114 0013898 171.6308 188.5050 14.15023036861535
COSMOS 2084             
1 20663U 90055A   26160.95726193  .00001825  00000+0  13800-3 0  9993
2 20663  62.7912  20.7675 0005485 265.8173  94.2301 15.06086664950215
SL-6 R/B(2)             
1 20666U 90055D   26161.60001414  .00001460  00000+0  11820-3 0  9996
2 20666  62.7827 297.7913 0039571   4.2633 355.8795 15.03981056952168
SL-8 R/B                
1 20775U 90078B   26161.48945853  .00017988  00000+0  50630-3 0  9996
2 20775  82.9013 167.6946 0352428  61.0080 302.5981 14.92057101823128
SL-8 R/B                
1 21088U 91006B   26161.62214644  .00000039  00000+0  24042-4 0  9997
2 21088  82.9423 100.9174 0023409 132.0513  45.2852 13.77505444776864
OKEAN-3                 
1 21397U 91039A   26161.62424356  .00001704  00000+0  11694-3 0  9997
2 21397  82.5161 246.7451 0014523  21.6391 338.5447 15.05295278879016
COSMOS 2151             
1 21422U 91042A   26161.59085471  .00001293  00000+0  10055-3 0  9990
2 21422  82.4961 354.0474 0013786 103.7466 256.5294 15.00418940877122
SL-14 R/B               
1 21423U 91042B   26161.33315937  .00000346  00000+0  40808-4 0  9994
2 21423  82.4923 133.3231 0015601 299.5789  60.3870 14.81898135866798
ERS-1                   
1 21574U 91050A   26161.63110064  .00000252  00000+0  95280-4 0  9997
2 21574  98.7798 182.1689 0030735 287.2576  72.5248 14.39513138829105
ARIANE 40 R/B           
1 21610U 91050F   26161.60014865  .00000234  00000+0  82352-4 0  9993
2 21610  98.1877 210.2733 0003984 135.5520 224.5992 14.42953171832390
INTERCOSMOS 25          
1 21819U 91086A   26161.26141404  .00000407  00000+0  81242-4 0  9994
2 21819  82.6056 254.0007 1484270 277.3473  66.1851 12.12187450507906
SL-8 R/B                
1 21876U 92008B   26161.59239660  .00000112  00000+0  99741-4 0  9996
2 21876  82.9264 198.6908 0033478 233.6553 242.2024 13.75975142722191
SL-8 R/B                
1 21938U 92020B   26161.53114302  .00000040  00000+0  25299-4 0  9995
2 21938  82.9305  84.8010 0030112  40.6642 137.3356 13.75548187713897
USA 81                  
1 21949U 92023A   26161.49878976  .00000139  00000+0  44118-4 0  9999
2 21949  85.0077  77.8675 0002776  90.7371 269.4139 14.32396392108075
COSMOS 2219             
1 22219U 92076A   26161.47054111  .00000069  00000+0  60627-4 0  9998
2 22219  71.0574 184.1134 0016285  55.1336 305.1315 14.14095867731496
SL-16 R/B               
1 22220U 92076B   26161.60465392 -.00000172  00000+0 -61980-4 0  9992
2 22220  71.0005 352.6486 0014523 307.2282 110.2192 14.16871402734998
COSMOS 2221             
1 22236U 92080A   26161.51954906  .00001203  00000+0  10345-3 0  9990
2 22236  82.5032 190.1528 0012789 236.7250 123.2748 14.96516324794676
SL-16 R/B               
1 22285U 92093B   26161.31683722 -.00000198  00000+0 -77213-4 0  9993
2 22285  71.0200 169.8144 0004341 198.8483 161.2480 14.15464216726266
COSMOS 2228             
1 22286U 92094A   26161.53969265  .00001770  00000+0  14903-3 0  9999
2 22286  82.5170 148.4100 0017573 355.3145   4.7910 14.97562377789952
SL-16 R/B               
1 22566U 93016B   26161.64957507  .00000215  00000+0  13488-3 0  9993
2 22566  71.0080  19.9391 0010636 192.8593 167.2260 14.15309915715324
COSMOS 2242             
1 22626U 93024A   26161.49611259  .00001416  00000+0  12089-3 0  9993
2 22626  82.5179 177.9444 0016019 359.3222   0.7975 14.96883412794274
SL-16 R/B               
1 22803U 93059B   26161.29071916  .00000282  00000+0  16334-3 0  9993
2 22803  70.9883 175.8474 0015038  66.0040 294.2656 14.17245572692651
ARIANE 40 R/B           
1 22830U 93061H   26161.43205954  .00000152  00000+0  71218-4 0  9992
2 22830  98.4819 228.4292 0010900  16.4284 343.7252 14.32905016707382
COSMOS 2278             
1 23087U 94023A   26161.59897767  .00000324  00000+0  19394-3 0  9999
2 23087  71.0545 340.7098 0010586 250.6928 109.3050 14.14394705657944
SL-16 R/B               
1 23088U 94023B   26161.60367280  .00000270  00000+0  16404-3 0  9993
2 23088  70.9994 235.7573 0003196 193.0050 167.0991 14.15020786659232
SL-16 R/B               
1 23343U 94074B   26161.59712719  .00000354  00000+0  53912-4 0  9991
2 23343  97.6993 188.5925 0005093 281.4345 193.4324 14.79496736700988
SL-16 R/B               
1 23405U 94077B   26161.47832735 -.00000224  00000+0 -90056-4 0  9999
2 23405  70.9805 157.2769 0002682 331.7665  28.3312 14.15572510629367
ARIANE 40+ R/B          
1 23561U 95021B   26161.44376094  .00000202  00000+0  78236-4 0  9990
2 23561  98.4411 231.6159 0006003 215.1873 160.4951 14.39829599632599
SL-16 R/B               
1 23705U 95058B   26161.63113756  .00000059  00000+0  54353-4 0  9999
2 23705  71.0215 345.1238 0013469 329.3963  30.6373 14.15505333581005
SL-16 R/B               
1 24298U 96051B   26161.58676998  .00000120  00000+0  91647-4 0  9993
2 24298  70.7636 338.6181 0014899 346.9060  13.1670 14.12443714534769
ORBVIEW 2 (SEASTAR)     
1 24883U 97037A   26161.32884202  .00000210  00000+0  89087-4 0  9994
2 24883  98.8682 328.1581 0002993 130.0629 230.0819 14.35549971521762
SL-16 R/B               
1 25400U 98043G   26161.48700312  .00000031  00000+0  31805-4 0  9990
2 25400  98.8361 115.5887 0010916 103.8268 256.4126 14.26067510452210
SL-16 R/B               
1 25407U 98045B   26161.59645702 -.00000081  00000+0 -16633-4 0  9991
2 25407  71.0121 346.1906 0009510 249.8958 110.1142 14.16204977440257
ISS (ZARYA)             
1 25544U 98067A   26161.41633915  .00005345  00000+0  10452-3 0  9999
2 25544  51.6361 333.6061 0005881 172.3680 187.7399 15.49162374570700
CZ-4B R/B               
1 25732U 99025C   26161.65732150  .00000040  00000+0  39682-4 0  9994
2 25732  98.6485 203.6600 0038226  77.9126  32.3377 14.18282367401340
OKEAN-O                 
1 25860U 99039A   26161.58879385  .00000514  00000+0  74083-4 0  9995
2 25860  97.9317 220.4621 0001772  76.6016 283.5394 14.80459467448131
SL-16 R/B               
1 25861U 99039B   26161.61671386  .00000415  00000+0  59355-4 0  9996
2 25861  97.9840 220.4983 0013845 320.0735  39.9458 14.81838675450626
DELTA 2 R/B             
1 25876U 99041E   26161.52208870  .00000736  00000+0  15618-3 0  9998
2 25876  51.7662 290.4209 0500893 262.3125  92.0671 14.12003883376145
HELIOS 1B               
1 25977U 99064A   26161.45410089  .00001189  00000+0  13601-3 0  9997
2 25977  98.1621  66.3989 0002450 100.6466 259.5026 14.87988804699059
TERRA                   
1 25994U 99068A   26161.65839779  .00000315  00000+0  73135-4 0  9992
2 25994  97.9458 211.4633 0001092 217.9293 254.4366 14.61097849408650
SL-16 R/B               
1 26070U 00006B   26161.63597092 -.00000274  00000+0 -11506-3 0  9998
2 26070  71.0029 262.4000 0015184  33.2560 326.9514 14.15835737361710
TITAN 4B R/B            
1 26474U 00047B   26161.50339797  .00002716  00000+0  17044-3 0  9997
2 26474  67.9872 139.3860 0045592 293.9592  65.6787 15.10157954406926
ENVISAT                 
1 27386U 02009A   26161.66651439  .00000065  00000+0  35083-4 0  9996
2 27386  98.3831 113.1305 0001331  90.0172  88.6336 14.39063283272544
IDEFIX & ARIANE 42P R/B 
1 27422U 02021B   26161.55735193  .00000178  00000+0  84069-4 0  9992
2 27422  98.5942  99.1123 0010592 275.6837  84.3138 14.31079052257302
AQUA                    
1 27424U 02022A   26161.62000722  .00000676  00000+0  14414-3 0  9995
2 27424  98.4274 130.7718 0001370  53.1045   0.2372 14.62148132282313
CZ-4B R/B               
1 27432U 02024C   26161.60329154  .00000020  00000+0  32704-4 0  9993
2 27432  98.8702 214.4660 0051120 118.5503   2.7588 14.14563352242371
MIDORI II (ADEOS-II)    
1 27597U 02056A   26161.48790690  .00000219  00000+0  10388-3 0  9996
2 27597  98.7875 120.6909 0002227  86.0647 274.0789 14.29345960223554
H-2A R/B                
1 27601U 02056E   26161.61455054  .00000156  00000+0  69556-4 0  9991
2 27601  98.3309 118.5288 0068952 244.4367 294.5981 14.33819251227425
CZ-4B R/B               
1 28059U 03049C   26161.56115137  .00000273  00000+0  74304-4 0  9998
2 28059  98.6897 160.1440 0047176 309.2873  50.4143 14.55095769200107
CZ-2C R/B               
1 28222U 04012C   26161.18613233  .00093739  00000+0  55763-3 0  9995
2 28222  97.7090 236.0413 0008787 314.2005  45.8537 15.77651761218799
SL-16 R/B               
1 28353U 04021B   26161.09008693 -.00000260  00000+0 -11066-3 0  9995
2 28353  71.0018  38.5845 0007486 262.9856  97.0415 14.14611503135906
CZ-4B R/B               
1 28415U 04035C   26161.59494856  .00006979  00000+0  23570-3 0  9998
2 28415  97.3375 194.7429 0030691   1.9478 358.1877 15.30529409194113
CZ-2C R/B               
1 28480U 04046B   26161.60052022  .00000052  00000+0  35056-4 0  9998
2 28480  98.1950  70.7926 0138204 239.8718 118.8707 14.27025141121758
ARIANE 5 R/B            
1 28499U 04049H   26161.19214354  .00000669  00000+0  79817-4 0  9990
2 28499  98.2717 333.1753 0084913  51.8919 308.9912 14.85439408159521
